{
  "type": "FeatureCollection",
  "properties": {
    "source": "OpenStreetMap © contributeurs — ODbL",
    "generated_at": "2026-07-27T00:06:59.178Z"
  },
  "features": [
    {
      "type": "Feature",
      "properties": {
        "id": "soukra",
        "osm_relation_id": 7114900,
        "codegeo": "125251",
        "nom_fr": "Soukra",
        "nom_ar": "سكرة",
        "population_estimee": 34000,
        "population_source": "estimation projet",
        "centre_lat": 36.875405,
        "centre_lng": 10.262392
      },
      "bbox": [
        10.236409,
        36.861799,
        10.288739,
        36.890763
      ],
      "geometry": {
        "type": "Polygon",
        "coordinates": [
          [
            [
              10.2887394,
              36.8671129
            ],
            [
              10.2868305,
              36.8662324
            ],
            [
              10.2857994,
              36.8656561
            ],
            [
              10.285177,
              36.8653993
            ],
            [
              10.2841289,
              36.8649158
            ],
            [
              10.2837774,
              36.8647329
            ],
            [
              10.283399,
              36.864422
            ],
            [
              10.2828549,
              36.8639834
            ],
            [
              10.2816134,
              36.8632741
            ],
            [
              10.2807427,
              36.8628301
            ],
            [
              10.2804256,
              36.8627336
            ],
            [
              10.2764801,
              36.8627016
            ],
            [
              10.2757441,
              36.8627173
            ],
            [
              10.2707265,
              36.8624744
            ],
            [
              10.2703155,
              36.8624371
            ],
            [
              10.2695792,
              36.8623281
            ],
            [
              10.2684911,
              36.8623169
            ],
            [
              10.2670434,
              36.8622908
            ],
            [
              10.2655257,
              36.8622459
            ],
            [
              10.2652671,
              36.8623179
            ],
            [
              10.264542,
              36.8623589
            ],
            [
              10.2636345,
              36.8623291
            ],
            [
              10.2629626,
              36.8623071
            ],
            [
              10.2622527,
              36.8622853
            ],
            [
              10.2616573,
              36.8622626
            ],
            [
              10.2602359,
              36.8622239
            ],
            [
              10.2596397,
              36.8621835
            ],
            [
              10.2589745,
              36.8621392
            ],
            [
              10.2562586,
              36.8619463
            ],
            [
              10.2544722,
              36.861849
            ],
            [
              10.2539555,
              36.8617987
            ],
            [
              10.2528399,
              36.86351
            ],
            [
              10.2456709,
              36.8746432
            ],
            [
              10.2454965,
              36.8753866
            ],
            [
              10.2435618,
              36.877565
            ],
            [
              10.2422986,
              36.8780644
            ],
            [
              10.2370134,
              36.8818971
            ],
            [
              10.2364092,
              36.8821668
            ],
            [
              10.2365823,
              36.8822732
            ],
            [
              10.2373591,
              36.8827436
            ],
            [
              10.2386804,
              36.8832662
            ],
            [
              10.2397295,
              36.8842069
            ],
            [
              10.2399291,
              36.8842824
            ],
            [
              10.2408475,
              36.8845002
            ],
            [
              10.2412831,
              36.8846598
            ],
            [
              10.2418711,
              36.8849095
            ],
            [
              10.2422592,
              36.8851043
            ],
            [
              10.242637,
              36.8853102
            ],
            [
              10.2432106,
              36.8856209
            ],
            [
              10.2422958,
              36.8860128
            ],
            [
              10.2429637,
              36.8864483
            ],
            [
              10.2435772,
              36.8867851
            ],
            [
              10.244089,
              36.8871277
            ],
            [
              10.244305,
              36.8872583
            ],
            [
              10.2446094,
              36.887486
            ],
            [
              10.2455843,
              36.8882212
            ],
            [
              10.2458144,
              36.8880401
            ],
            [
              10.2459051,
              36.8880122
            ],
            [
              10.2460306,
              36.8879843
            ],
            [
              10.2524144,
              36.8872181
            ],
            [
              10.2549964,
              36.8866816
            ],
            [
              10.2552222,
              36.8866769
            ],
            [
              10.2561774,
              36.8868544
            ],
            [
              10.259512,
              36.8873838
            ],
            [
              10.2631707,
              36.8875829
            ],
            [
              10.2633444,
              36.8875582
            ],
            [
              10.2643497,
              36.8872542
            ],
            [
              10.2645302,
              36.8872349
            ],
            [
              10.2701224,
              36.8882559
            ],
            [
              10.2730667,
              36.8889243
            ],
            [
              10.2765646,
              36.8907633
            ],
            [
              10.2804887,
              36.8851848
            ],
            [
              10.2786112,
              36.8844972
            ],
            [
              10.278394,
              36.8843867
            ],
            [
              10.2774226,
              36.8839185
            ],
            [
              10.275813,
              36.8830588
            ],
            [
              10.2754871,
              36.8828464
            ],
            [
              10.2751946,
              36.8826158
            ],
            [
              10.2748747,
              36.8823274
            ],
            [
              10.2746013,
              36.8820577
            ],
            [
              10.2743437,
              36.881796
            ],
            [
              10.2739067,
              36.8812699
            ],
            [
              10.2736379,
              36.8808922
            ],
            [
              10.2732919,
              36.8802407
            ],
            [
              10.2730918,
              36.8797956
            ],
            [
              10.2726167,
              36.8786829
            ],
            [
              10.2723606,
              36.8780876
            ],
            [
              10.2719193,
              36.8768997
            ],
            [
              10.2718639,
              36.8766959
            ],
            [
              10.2716454,
              36.8759986
            ],
            [
              10.2714715,
              36.8754604
            ],
            [
              10.2714059,
              36.8750458
            ],
            [
              10.2729492,
              36.8746547
            ],
            [
              10.2739507,
              36.874386
            ],
            [
              10.2749678,
              36.8740822
            ],
            [
              10.2750687,
              36.8740464
            ],
            [
              10.2756748,
              36.8738533
            ],
            [
              10.2762716,
              36.8736411
            ],
            [
              10.2770367,
              36.8733287
            ],
            [
              10.2775087,
              36.8731683
            ],
            [
              10.2776288,
              36.8731313
            ],
            [
              10.2780616,
              36.8730025
            ],
            [
              10.2799701,
              36.8724158
            ],
            [
              10.2810247,
              36.87203
            ],
            [
              10.28139,
              36.8718621
            ],
            [
              10.2816739,
              36.8716954
            ],
            [
              10.2819497,
              36.8715046
            ],
            [
              10.2828705,
              36.8708676
            ],
            [
              10.2832447,
              36.8706283
            ],
            [
              10.283921,
              36.8701885
            ],
            [
              10.284508,
              36.8698043
            ],
            [
              10.285068,
              36.8694338
            ],
            [
              10.2853996,
              36.8691988
            ],
            [
              10.2860195,
              36.8686901
            ],
            [
              10.2864639,
              36.8683149
            ],
            [
              10.2867271,
              36.8681287
            ],
            [
              10.2868765,
              36.8680493
            ],
            [
              10.2872309,
              36.8678927
            ],
            [
              10.2880106,
              36.8675423
            ],
            [
              10.288329,
              36.8673854
            ],
            [
              10.2887394,
              36.8671129
            ]
          ]
        ]
      }
    },
    {
      "type": "Feature",
      "properties": {
        "id": "dar-fadhal",
        "osm_relation_id": 7114903,
        "codegeo": "125252",
        "nom_fr": "Dar Fadhal",
        "nom_ar": "دار فضال",
        "population_estimee": 18000,
        "population_source": "estimation projet",
        "centre_lat": 36.866212,
        "centre_lng": 10.241452
      },
      "bbox": [
        10.23111,
        36.856894,
        10.253956,
        36.874643
      ],
      "geometry": {
        "type": "Polygon",
        "coordinates": [
          [
            [
              10.2439318,
              36.86168
            ],
            [
              10.2436216,
              36.8614287
            ],
            [
              10.2433719,
              36.8612504
            ],
            [
              10.2429278,
              36.8611326
            ],
            [
              10.2401677,
              36.8600739
            ],
            [
              10.23968,
              36.8598839
            ],
            [
              10.2390172,
              36.8596357
            ],
            [
              10.2359439,
              36.8585107
            ],
            [
              10.2349567,
              36.8581545
            ],
            [
              10.2343987,
              36.8579562
            ],
            [
              10.2311105,
              36.8568944
            ],
            [
              10.2331192,
              36.8643786
            ],
            [
              10.233668,
              36.8662823
            ],
            [
              10.2341815,
              36.8680633
            ],
            [
              10.2343328,
              36.8685941
            ],
            [
              10.2347334,
              36.8700891
            ],
            [
              10.2349783,
              36.8710435
            ],
            [
              10.233341,
              36.8712919
            ],
            [
              10.2329558,
              36.8712859
            ],
            [
              10.2330048,
              36.8713991
            ],
            [
              10.2335378,
              36.8716471
            ],
            [
              10.2357375,
              36.8725851
            ],
            [
              10.2376396,
              36.8733865
            ],
            [
              10.2403185,
              36.8742751
            ],
            [
              10.241785,
              36.87449
            ],
            [
              10.243266,
              36.8745364
            ],
            [
              10.2456709,
              36.8746432
            ],
            [
              10.2528399,
              36.86351
            ],
            [
              10.2539555,
              36.8617987
            ],
            [
              10.2535467,
              36.8618202
            ],
            [
              10.2456009,
              36.86126
            ],
            [
              10.245129,
              36.8614144
            ],
            [
              10.2449934,
              36.8617019
            ],
            [
              10.2439318,
              36.86168
            ]
          ]
        ]
      }
    },
    {
      "type": "Feature",
      "properties": {
        "id": "el-bassatine",
        "osm_relation_id": 7114902,
        "codegeo": "125253",
        "nom_fr": "El Bassatine",
        "nom_ar": "البساتين",
        "population_estimee": 16000,
        "population_source": "estimation projet",
        "centre_lat": 36.87731,
        "centre_lng": 10.228958
      },
      "bbox": [
        10.216997,
        36.865139,
        10.245671,
        36.887692
      ],
      "geometry": {
        "type": "Polygon",
        "coordinates": [
          [
            [
              10.2252593,
              36.8651391
            ],
            [
              10.2254663,
              36.8652029
            ],
            [
              10.2260808,
              36.8655053
            ],
            [
              10.2268521,
              36.8658403
            ],
            [
              10.2273253,
              36.8675962
            ],
            [
              10.2276694,
              36.868873
            ],
            [
              10.2276168,
              36.8689214
            ],
            [
              10.2289152,
              36.8695318
            ],
            [
              10.2300444,
              36.8701133
            ],
            [
              10.2325118,
              36.8712245
            ],
            [
              10.2329558,
              36.8712859
            ],
            [
              10.2330048,
              36.8713991
            ],
            [
              10.2335378,
              36.8716471
            ],
            [
              10.2357375,
              36.8725851
            ],
            [
              10.2376396,
              36.8733865
            ],
            [
              10.2403185,
              36.8742751
            ],
            [
              10.241785,
              36.87449
            ],
            [
              10.243266,
              36.8745364
            ],
            [
              10.2456709,
              36.8746432
            ],
            [
              10.2454965,
              36.8753866
            ],
            [
              10.2435618,
              36.877565
            ],
            [
              10.2422986,
              36.8780644
            ],
            [
              10.2370134,
              36.8818971
            ],
            [
              10.2364092,
              36.8821668
            ],
            [
              10.2347338,
              36.8826404
            ],
            [
              10.2323816,
              36.8844173
            ],
            [
              10.2277063,
              36.8876923
            ],
            [
              10.2252379,
              36.8870187
            ],
            [
              10.2232052,
              36.8852303
            ],
            [
              10.2218113,
              36.8845799
            ],
            [
              10.2210998,
              36.8838482
            ],
            [
              10.2188347,
              36.881932
            ],
            [
              10.2187476,
              36.8812235
            ],
            [
              10.2182539,
              36.8801318
            ],
            [
              10.2177312,
              36.8788891
            ],
            [
              10.2174844,
              36.878018
            ],
            [
              10.2169967,
              36.877173
            ],
            [
              10.2200396,
              36.8729331
            ],
            [
              10.2237931,
              36.8674719
            ],
            [
              10.2251897,
              36.865225
            ],
            [
              10.2252593,
              36.8651391
            ]
          ]
        ]
      }
    },
    {
      "type": "Feature",
      "properties": {
        "id": "chotrana",
        "osm_relation_id": 7114901,
        "codegeo": "125254",
        "nom_fr": "Chotrana",
        "nom_ar": "شطرانة",
        "population_estimee": 39000,
        "population_source": "estimation projet",
        "centre_lat": 36.895093,
        "centre_lng": 10.216612
      },
      "bbox": [
        10.191185,
        36.877173,
        10.245584,
        36.913829
      ],
      "geometry": {
        "type": "Polygon",
        "coordinates": [
          [
            [
              10.2076208,
              36.8849383
            ],
            [
              10.211554,
              36.8849965
            ],
            [
              10.2118081,
              36.8845436
            ],
            [
              10.2128317,
              36.8830803
            ],
            [
              10.2140732,
              36.8813672
            ],
            [
              10.2145596,
              36.8805717
            ],
            [
              10.2152565,
              36.8794567
            ],
            [
              10.2169967,
              36.877173
            ],
            [
              10.2174844,
              36.878018
            ],
            [
              10.2177312,
              36.8788891
            ],
            [
              10.2182539,
              36.8801318
            ],
            [
              10.2187476,
              36.8812235
            ],
            [
              10.2188347,
              36.881932
            ],
            [
              10.2210998,
              36.8838482
            ],
            [
              10.2218113,
              36.8845799
            ],
            [
              10.2232052,
              36.8852303
            ],
            [
              10.2252379,
              36.8870187
            ],
            [
              10.2277063,
              36.8876923
            ],
            [
              10.2323816,
              36.8844173
            ],
            [
              10.2347338,
              36.8826404
            ],
            [
              10.2364092,
              36.8821668
            ],
            [
              10.2365823,
              36.8822732
            ],
            [
              10.2373591,
              36.8827436
            ],
            [
              10.2386804,
              36.8832662
            ],
            [
              10.2397295,
              36.8842069
            ],
            [
              10.2399291,
              36.8842824
            ],
            [
              10.2408475,
              36.8845002
            ],
            [
              10.2412831,
              36.8846598
            ],
            [
              10.2418711,
              36.8849095
            ],
            [
              10.2422592,
              36.8851043
            ],
            [
              10.242637,
              36.8853102
            ],
            [
              10.2432106,
              36.8856209
            ],
            [
              10.2422958,
              36.8860128
            ],
            [
              10.2429637,
              36.8864483
            ],
            [
              10.2435772,
              36.8867851
            ],
            [
              10.244089,
              36.8871277
            ],
            [
              10.244305,
              36.8872583
            ],
            [
              10.2446094,
              36.887486
            ],
            [
              10.2455843,
              36.8882212
            ],
            [
              10.2423256,
              36.8898396
            ],
            [
              10.2388284,
              36.8915949
            ],
            [
              10.2299239,
              36.896052
            ],
            [
              10.211788,
              36.9052989
            ],
            [
              10.211698,
              36.9053272
            ],
            [
              10.2116244,
              36.9053403
            ],
            [
              10.2079032,
              36.9049523
            ],
            [
              10.2068808,
              36.9048781
            ],
            [
              10.20707,
              36.9061114
            ],
            [
              10.2031876,
              36.9083726
            ],
            [
              10.2044731,
              36.909815
            ],
            [
              10.2032496,
              36.9102992
            ],
            [
              10.2026965,
              36.9101002
            ],
            [
              10.2013549,
              36.9104147
            ],
            [
              10.2003139,
              36.9114134
            ],
            [
              10.1998127,
              36.9120053
            ],
            [
              10.1990031,
              36.9120916
            ],
            [
              10.1985558,
              36.9118697
            ],
            [
              10.1977308,
              36.9120361
            ],
            [
              10.1971437,
              36.9127568
            ],
            [
              10.196333,
              36.9138292
            ],
            [
              10.1959282,
              36.9136602
            ],
            [
              10.1943674,
              36.9125886
            ],
            [
              10.1917486,
              36.910871
            ],
            [
              10.1916117,
              36.9107432
            ],
            [
              10.1915231,
              36.9105787
            ],
            [
              10.1913988,
              36.9087995
            ],
            [
              10.1911853,
              36.9059984
            ],
            [
              10.1920207,
              36.9058381
            ],
            [
              10.1923104,
              36.9057008
            ],
            [
              10.1936783,
              36.9046113
            ],
            [
              10.1952394,
              36.9034874
            ],
            [
              10.1966502,
              36.9025566
            ],
            [
              10.1972135,
              36.9020547
            ],
            [
              10.1976909,
              36.9014412
            ],
            [
              10.1979967,
              36.9011538
            ],
            [
              10.1984527,
              36.9008492
            ],
            [
              10.1996006,
              36.9002101
            ],
            [
              10.2005072,
              36.8998454
            ],
            [
              10.2009417,
              36.8996524
            ],
            [
              10.2014675,
              36.8992792
            ],
            [
              10.2025403,
              36.8983954
            ],
            [
              10.2031251,
              36.897975
            ],
            [
              10.2053245,
              36.8968081
            ],
            [
              10.2060701,
              36.8962933
            ],
            [
              10.2069499,
              36.8955683
            ],
            [
              10.2088113,
              36.8939895
            ],
            [
              10.2111529,
              36.8923783
            ],
            [
              10.2102508,
              36.8908248
            ],
            [
              10.2097895,
              36.8899281
            ],
            [
              10.2087595,
              36.8877614
            ],
            [
              10.2080275,
              36.8858704
            ],
            [
              10.2076208,
              36.8849383
            ]
          ]
        ]
      }
    },
    {
      "type": "Feature",
      "properties": {
        "id": "borj-louzir",
        "osm_relation_id": 7114906,
        "codegeo": "125255",
        "nom_fr": "Borj Louzir",
        "nom_ar": "برج الوزير",
        "population_estimee": 28000,
        "population_source": "estimation projet",
        "centre_lat": 36.861255,
        "centre_lng": 10.211354
      },
      "bbox": [
        10.200396,
        36.848547,
        10.225259,
        36.872933
      ],
      "geometry": {
        "type": "Polygon",
        "coordinates": [
          [
            [
              10.2252593,
              36.8651391
            ],
            [
              10.2251897,
              36.865225
            ],
            [
              10.2237931,
              36.8674719
            ],
            [
              10.2200396,
              36.8729331
            ],
            [
              10.2163056,
              36.871364
            ],
            [
              10.2140405,
              36.8704057
            ],
            [
              10.2128645,
              36.869878
            ],
            [
              10.2098516,
              36.8684542
            ],
            [
              10.2090457,
              36.8680883
            ],
            [
              10.2071001,
              36.8671358
            ],
            [
              10.2017713,
              36.8649723
            ],
            [
              10.2003958,
              36.8643777
            ],
            [
              10.2008944,
              36.8638573
            ],
            [
              10.2012559,
              36.8633932
            ],
            [
              10.2018732,
              36.8623227
            ],
            [
              10.2021374,
              36.8617423
            ],
            [
              10.2022609,
              36.8614095
            ],
            [
              10.2025598,
              36.8605158
            ],
            [
              10.2026235,
              36.8602608
            ],
            [
              10.2026819,
              36.8599943
            ],
            [
              10.2027328,
              36.8596485
            ],
            [
              10.2027871,
              36.8590048
            ],
            [
              10.2027958,
              36.8588759
            ],
            [
              10.2028012,
              36.8586563
            ],
            [
              10.2027865,
              36.8582249
            ],
            [
              10.2027731,
              36.8578064
            ],
            [
              10.202706,
              36.856581
            ],
            [
              10.2026376,
              36.855245
            ],
            [
              10.2026027,
              36.8546848
            ],
            [
              10.2025491,
              36.8540399
            ],
            [
              10.2024947,
              36.8528935
            ],
            [
              10.2023868,
              36.8510928
            ],
            [
              10.2023063,
              36.8503832
            ],
            [
              10.2111262,
              36.8488238
            ],
            [
              10.2125997,
              36.8485467
            ],
            [
              10.2127752,
              36.8494122
            ],
            [
              10.2129147,
              36.8500025
            ],
            [
              10.2131005,
              36.8509167
            ],
            [
              10.2132372,
              36.8514987
            ],
            [
              10.2133107,
              36.8526081
            ],
            [
              10.21294,
              36.8528664
            ],
            [
              10.2126233,
              36.8532099
            ],
            [
              10.2135676,
              36.856875
            ],
            [
              10.213758,
              36.8572441
            ],
            [
              10.213868,
              36.8575145
            ],
            [
              10.2139485,
              36.8577141
            ],
            [
              10.2140866,
              36.8580822
            ],
            [
              10.2142556,
              36.858711
            ],
            [
              10.2143896,
              36.8592329
            ],
            [
              10.214468,
              36.8594503
            ],
            [
              10.2146215,
              36.859755
            ],
            [
              10.2143159,
              36.8598473
            ],
            [
              10.2144306,
              36.860276
            ],
            [
              10.2144849,
              36.86046
            ],
            [
              10.214552,
              36.8605062
            ],
            [
              10.2152011,
              36.8607916
            ],
            [
              10.2155323,
              36.8609321
            ],
            [
              10.2159414,
              36.8611006
            ],
            [
              10.2164175,
              36.8613141
            ],
            [
              10.2168345,
              36.861503
            ],
            [
              10.2171363,
              36.8616296
            ],
            [
              10.2181113,
              36.8620566
            ],
            [
              10.2187322,
              36.862326
            ],
            [
              10.2197649,
              36.8627691
            ],
            [
              10.2205615,
              36.8631189
            ],
            [
              10.2217497,
              36.8636178
            ],
            [
              10.2240627,
              36.8646285
            ],
            [
              10.2252593,
              36.8651391
            ]
          ]
        ]
      }
    },
    {
      "type": "Feature",
      "properties": {
        "id": "ennassim",
        "osm_relation_id": 7114905,
        "codegeo": "125256",
        "nom_fr": "Ennassim",
        "nom_ar": "النسيم",
        "population_estimee": 14000,
        "population_source": "estimation projet",
        "centre_lat": 36.877473,
        "centre_lng": 10.197144
      },
      "bbox": [
        10.185503,
        36.865126,
        10.208759,
        36.887761
      ],
      "geometry": {
        "type": "Polygon",
        "coordinates": [
          [
            [
              10.1856397,
              36.8794893
            ],
            [
              10.1863334,
              36.8799738
            ],
            [
              10.186721,
              36.8801562
            ],
            [
              10.1903848,
              36.881753
            ],
            [
              10.1913195,
              36.8821308
            ],
            [
              10.1927068,
              36.8826726
            ],
            [
              10.1956574,
              36.8841261
            ],
            [
              10.1961069,
              36.8843892
            ],
            [
              10.1963055,
              36.8844804
            ],
            [
              10.1992138,
              36.8855823
            ],
            [
              10.1997088,
              36.8857985
            ],
            [
              10.1997642,
              36.8861136
            ],
            [
              10.2004057,
              36.8861866
            ],
            [
              10.2011743,
              36.8861397
            ],
            [
              10.2022686,
              36.8863898
            ],
            [
              10.2039979,
              36.8866763
            ],
            [
              10.2051312,
              36.8868847
            ],
            [
              10.2087595,
              36.8877614
            ],
            [
              10.2080275,
              36.8858704
            ],
            [
              10.2076208,
              36.8849383
            ],
            [
              10.2072725,
              36.88414
            ],
            [
              10.2069313,
              36.8816024
            ],
            [
              10.2066554,
              36.8808127
            ],
            [
              10.2062561,
              36.8799648
            ],
            [
              10.2038095,
              36.8758417
            ],
            [
              10.201951,
              36.8723862
            ],
            [
              10.2012178,
              36.8705974
            ],
            [
              10.200245,
              36.8670952
            ],
            [
              10.1995097,
              36.865126
            ],
            [
              10.1989415,
              36.8655387
            ],
            [
              10.1961432,
              36.8675232
            ],
            [
              10.1931788,
              36.8695986
            ],
            [
              10.1899637,
              36.8718512
            ],
            [
              10.1886404,
              36.8727792
            ],
            [
              10.1868711,
              36.8740267
            ],
            [
              10.1856235,
              36.8748802
            ],
            [
              10.1855031,
              36.8749597
            ],
            [
              10.1858184,
              36.8753114
            ],
            [
              10.1860003,
              36.8756419
            ],
            [
              10.1860715,
              36.8758902
            ],
            [
              10.1860729,
              36.877697
            ],
            [
              10.185998,
              36.8781737
            ],
            [
              10.1856397,
              36.8794893
            ]
          ]
        ]
      }
    },
    {
      "type": "Feature",
      "properties": {
        "id": "ettaamir",
        "osm_relation_id": 7114904,
        "codegeo": "125257",
        "nom_fr": "Ettaamir",
        "nom_ar": "التعمير",
        "population_estimee": 11000,
        "population_source": "estimation projet",
        "centre_lat": 36.874554,
        "centre_lng": 10.209284
      },
      "bbox": [
        10.19951,
        36.864378,
        10.22004,
        36.884996
      ],
      "geometry": {
        "type": "Polygon",
        "coordinates": [
          [
            [
              10.2003958,
              36.8643777
            ],
            [
              10.2017713,
              36.8649723
            ],
            [
              10.2071001,
              36.8671358
            ],
            [
              10.2090457,
              36.8680883
            ],
            [
              10.2098516,
              36.8684542
            ],
            [
              10.2128645,
              36.869878
            ],
            [
              10.2140405,
              36.8704057
            ],
            [
              10.2163056,
              36.871364
            ],
            [
              10.2200396,
              36.8729331
            ],
            [
              10.2169967,
              36.877173
            ],
            [
              10.2152565,
              36.8794567
            ],
            [
              10.2145596,
              36.8805717
            ],
            [
              10.2140732,
              36.8813672
            ],
            [
              10.2128317,
              36.8830803
            ],
            [
              10.2118081,
              36.8845436
            ],
            [
              10.211554,
              36.8849965
            ],
            [
              10.2076208,
              36.8849383
            ],
            [
              10.2072725,
              36.88414
            ],
            [
              10.2069313,
              36.8816024
            ],
            [
              10.2066554,
              36.8808127
            ],
            [
              10.2062561,
              36.8799648
            ],
            [
              10.2038095,
              36.8758417
            ],
            [
              10.201951,
              36.8723862
            ],
            [
              10.2012178,
              36.8705974
            ],
            [
              10.200245,
              36.8670952
            ],
            [
              10.1995097,
              36.865126
            ],
            [
              10.1996993,
              36.8649883
            ],
            [
              10.2003202,
              36.8644566
            ],
            [
              10.2003958,
              36.8643777
            ]
          ]
        ]
      }
    }
  ]
}
